<?xml version="1.0" encoding="UTF-8"?>
<ndm xmlns:xsi="http://www.w3.org/2001/XMLSchema-instance" xsi:noNamespaceSchemaLocation="https://sanaregistry.org/r/ndmxml_unqualified/ndmxml-2.0.0-master-2.0.xsd">
<omm id="CCSDS_OMM_VERS" version="2.0">
<header><CREATION_DATE/><ORIGINATOR/></header><body><segment><metadata><OBJECT_NAME>KUIPER-00008</OBJECT_NAME><OBJECT_ID>2025-088A</OBJECT_ID><CENTER_NAME>EARTH</CENTER_NAME><REF_FRAME>TEME</REF_FRAME><TIME_SYSTEM>UTC</TIME_SYSTEM><MEAN_ELEMENT_THEORY>SGP4</MEAN_ELEMENT_THEORY></metadata><data><meanElements><EPOCH>2026-01-22T04:19:51.693024</EPOCH><MEAN_MOTION>14.99125432</MEAN_MOTION><ECCENTRICITY>.00074351</ECCENTRICITY><INCLINATION>51.8913</INCLINATION><RA_OF_ASC_NODE>298.9806</RA_OF_ASC_NODE><ARG_OF_PERICENTER>306.1335</ARG_OF_PERICENTER><MEAN_ANOMALY>53.8947</MEAN_ANOMALY></meanElements><tleParameters><EPHEMERIS_TYPE>0</EPHEMERIS_TYPE><CLASSIFICATION_TYPE>U</CLASSIFICATION_TYPE><NORAD_CAT_ID>63724</NORAD_CAT_ID><ELEMENT_SET_NO>999</ELEMENT_SET_NO><REV_AT_EPOCH>4108</REV_AT_EPOCH><BSTAR>.93011772E-3</BSTAR><MEAN_MOTION_DOT>.1119E-3</MEAN_MOTION_DOT><MEAN_MOTION_DDOT>0</MEAN_MOTION_DDOT></tleParameters></data></segment></body></omm>
<omm id="CCSDS_OMM_VERS" version="2.0">
<header><CREATION_DATE/><ORIGINATOR/></header><body><segment><metadata><OBJECT_NAME>KUIPER-00009</OBJECT_NAME><OBJECT_ID>2025-088B</OBJECT_ID><CENTER_NAME>EARTH</CENTER_NAME><REF_FRAME>TEME</REF_FRAME><TIME_SYSTEM>UTC</TIME_SYSTEM><MEAN_ELEMENT_THEORY>SGP4</MEAN_ELEMENT_THEORY></metadata><data><meanElements><EPOCH>2026-01-22T01:15:36.050112</EPOCH><MEAN_MOTION>14.79939411</MEAN_MOTION><ECCENTRICITY>.00097609</ECCENTRICITY><INCLINATION>51.9035</INCLINATION><RA_OF_ASC_NODE>312.8611</RA_OF_ASC_NODE><ARG_OF_PERICENTER>308.4510</ARG_OF_PERICENTER><MEAN_ANOMALY>51.5575</MEAN_ANOMALY></meanElements><tleParameters><EPHEMERIS_TYPE>0</EPHEMERIS_TYPE><CLASSIFICATION_TYPE>U</CLASSIFICATION_TYPE><NORAD_CAT_ID>63725</NORAD_CAT_ID><ELEMENT_SET_NO>999</ELEMENT_SET_NO><REV_AT_EPOCH>4087</REV_AT_EPOCH><BSTAR>.13691645E-2</BSTAR><MEAN_MOTION_DOT>.1024E-3</MEAN_MOTION_DOT><MEAN_MOTION_DDOT>0</MEAN_MOTION_DDOT></tleParameters></data></segment></body></omm>
<omm id="CCSDS_OMM_VERS" version="2.0">
<header><CREATION_DATE/><ORIGINATOR/></header><body><segment><metadata><OBJECT_NAME>KUIPER-00010</OBJECT_NAME><OBJECT_ID>2025-088C</OBJECT_ID><CENTER_NAME>EARTH</CENTER_NAME><REF_FRAME>TEME</REF_FRAME><TIME_SYSTEM>UTC</TIME_SYSTEM><MEAN_ELEMENT_THEORY>SGP4</MEAN_ELEMENT_THEORY></metadata><data><meanElements><EPOCH>2026-01-22T05:55:38.581248</EPOCH><MEAN_MOTION>14.79899034</MEAN_MOTION><ECCENTRICITY>.00003568</ECCENTRICITY><INCLINATION>51.9021</INCLINATION><RA_OF_ASC_NODE>288.4567</RA_OF_ASC_NODE><ARG_OF_PERICENTER>97.9990</ARG_OF_PERICENTER><MEAN_ANOMALY>262.1013</MEAN_ANOMALY></meanElements><tleParameters><EPHEMERIS_TYPE>0</EPHEMERIS_TYPE><CLASSIFICATION_TYPE>U</CLASSIFICATION_TYPE><NORAD_CAT_ID>63726</NORAD_CAT_ID><ELEMENT_SET_NO>999</ELEMENT_SET_NO><REV_AT_EPOCH>4085</REV_AT_EPOCH><BSTAR>.12018144E-2</BSTAR><MEAN_MOTION_DOT>.8946E-4</MEAN_MOTION_DOT><MEAN_MOTION_DDOT>0</MEAN_MOTION_DDOT></tleParameters></data></segment></body></omm>
<omm id="CCSDS_OMM_VERS" version="2.0">
<header><CREATION_DATE/><ORIGINATOR/></header><body><segment><metadata><OBJECT_NAME>KUIPER-00011</OBJECT_NAME><OBJECT_ID>2025-088D</OBJECT_ID><CENTER_NAME>EARTH</CENTER_NAME><REF_FRAME>TEME</REF_FRAME><TIME_SYSTEM>UTC</TIME_SYSTEM><MEAN_ELEMENT_THEORY>SGP4</MEAN_ELEMENT_THEORY></metadata><data><meanElements><EPOCH>2026-01-22T01:40:55.357824</EPOCH><MEAN_MOTION>14.79983305</MEAN_MOTION><ECCENTRICITY>.00108329</ECCENTRICITY><INCLINATION>51.9011</INCLINATION><RA_OF_ASC_NODE>296.8094</RA_OF_ASC_NODE><ARG_OF_PERICENTER>329.6670</ARG_OF_PERICENTER><MEAN_ANOMALY>30.3665</MEAN_ANOMALY></meanElements><tleParameters><EPHEMERIS_TYPE>0</EPHEMERIS_TYPE><CLASSIFICATION_TYPE>U</CLASSIFICATION_TYPE><NORAD_CAT_ID>63727</NORAD_CAT_ID><ELEMENT_SET_NO>999</ELEMENT_SET_NO><REV_AT_EPOCH>4085</REV_AT_EPOCH><BSTAR>-.46802157E-3</BSTAR><MEAN_MOTION_DOT>-.3798E-4</MEAN_MOTION_DOT><MEAN_MOTION_DDOT>0</MEAN_MOTION_DDOT></tleParameters></data></segment></body></omm>
<omm id="CCSDS_OMM_VERS" version="2.0">
<header><CREATION_DATE/><ORIGINATOR/></header><body><segment><metadata><OBJECT_NAME>KUIPER-00012</OBJECT_NAME><OBJECT_ID>2025-088E</OBJECT_ID><CENTER_NAME>EARTH</CENTER_NAME><REF_FRAME>TEME</REF_FRAME><TIME_SYSTEM>UTC</TIME_SYSTEM><MEAN_ELEMENT_THEORY>SGP4</MEAN_ELEMENT_THEORY></metadata><data><meanElements><EPOCH>2026-01-21T22:10:41.882304</EPOCH><MEAN_MOTION>14.76776124</MEAN_MOTION><ECCENTRICITY>.00081128</ECCENTRICITY><INCLINATION>51.9018</INCLINATION><RA_OF_ASC_NODE>281.7471</RA_OF_ASC_NODE><ARG_OF_PERICENTER>337.4504</ARG_OF_PERICENTER><MEAN_ANOMALY>22.6099</MEAN_ANOMALY></meanElements><tleParameters><EPHEMERIS_TYPE>0</EPHEMERIS_TYPE><CLASSIFICATION_TYPE>U</CLASSIFICATION_TYPE><NORAD_CAT_ID>63728</NORAD_CAT_ID><ELEMENT_SET_NO>999</ELEMENT_SET_NO><REV_AT_EPOCH>4100</REV_AT_EPOCH><BSTAR>.12525072E-2</BSTAR><MEAN_MOTION_DOT>.8661E-4</MEAN_MOTION_DOT><MEAN_MOTION_DDOT>0</MEAN_MOTION_DDOT></tleParameters></data></segment></body></omm>
<omm id="CCSDS_OMM_VERS" version="2.0">
<header><CREATION_DATE/><ORIGINATOR/></header><body><segment><metadata><OBJECT_NAME>KUIPER-00013</OBJECT_NAME><OBJECT_ID>2025-088F</OBJECT_ID><CENTER_NAME>EARTH</CENTER_NAME><REF_FRAME>TEME</REF_FRAME><TIME_SYSTEM>UTC</TIME_SYSTEM><MEAN_ELEMENT_THEORY>SGP4</MEAN_ELEMENT_THEORY></metadata><data><meanElements><EPOCH>2026-01-22T04:27:54.717408</EPOCH><MEAN_MOTION>14.80079412</MEAN_MOTION><ECCENTRICITY>.0004067</ECCENTRICITY><INCLINATION>51.9020</INCLINATION><RA_OF_ASC_NODE>313.7290</RA_OF_ASC_NODE><ARG_OF_PERICENTER>236.6003</ARG_OF_PERICENTER><MEAN_ANOMALY>123.4570</MEAN_ANOMALY></meanElements><tleParameters><EPHEMERIS_TYPE>0</EPHEMERIS_TYPE><CLASSIFICATION_TYPE>U</CLASSIFICATION_TYPE><NORAD_CAT_ID>63729</NORAD_CAT_ID><ELEMENT_SET_NO>999</ELEMENT_SET_NO><REV_AT_EPOCH>4068</REV_AT_EPOCH><BSTAR>.1168793E-2</BSTAR><MEAN_MOTION_DOT>.8732E-4</MEAN_MOTION_DOT><MEAN_MOTION_DDOT>0</MEAN_MOTION_DDOT></tleParameters></data></segment></body></omm>
<omm id="CCSDS_OMM_VERS" version="2.0">
<header><CREATION_DATE/><ORIGINATOR/></header><body><segment><metadata><OBJECT_NAME>KUIPER-00014</OBJECT_NAME><OBJECT_ID>2025-088G</OBJECT_ID><CENTER_NAME>EARTH</CENTER_NAME><REF_FRAME>TEME</REF_FRAME><TIME_SYSTEM>UTC</TIME_SYSTEM><MEAN_ELEMENT_THEORY>SGP4</MEAN_ELEMENT_THEORY></metadata><data><meanElements><EPOCH>2026-01-22T04:24:20.125728</EPOCH><MEAN_MOTION>14.80095755</MEAN_MOTION><ECCENTRICITY>.00046845</ECCENTRICITY><INCLINATION>51.9022</INCLINATION><RA_OF_ASC_NODE>314.7015</RA_OF_ASC_NODE><ARG_OF_PERICENTER>323.1995</ARG_OF_PERICENTER><MEAN_ANOMALY>36.8645</MEAN_ANOMALY></meanElements><tleParameters><EPHEMERIS_TYPE>0</EPHEMERIS_TYPE><CLASSIFICATION_TYPE>U</CLASSIFICATION_TYPE><NORAD_CAT_ID>63730</NORAD_CAT_ID><ELEMENT_SET_NO>999</ELEMENT_SET_NO><REV_AT_EPOCH>4048</REV_AT_EPOCH><BSTAR>.7471878E-3</BSTAR><MEAN_MOTION_DOT>.5501E-4</MEAN_MOTION_DOT><MEAN_MOTION_DDOT>0</MEAN_MOTION_DDOT></tleParameters></data></segment></body></omm>
<omm id="CCSDS_OMM_VERS" version="2.0">
<header><CREATION_DATE/><ORIGINATOR/></header><body><segment><metadata><OBJECT_NAME>KUIPER-00015</OBJECT_NAME><OBJECT_ID>2025-088H</OBJECT_ID><CENTER_NAME>EARTH</CENTER_NAME><REF_FRAME>TEME</REF_FRAME><TIME_SYSTEM>UTC</TIME_SYSTEM><MEAN_ELEMENT_THEORY>SGP4</MEAN_ELEMENT_THEORY></metadata><data><meanElements><EPOCH>2026-01-22T05:33:36.141984</EPOCH><MEAN_MOTION>14.82345447</MEAN_MOTION><ECCENTRICITY>.00090415</ECCENTRICITY><INCLINATION>51.9008</INCLINATION><RA_OF_ASC_NODE>324.8520</RA_OF_ASC_NODE><ARG_OF_PERICENTER>282.5106</ARG_OF_PERICENTER><MEAN_ANOMALY>77.4846</MEAN_ANOMALY></meanElements><tleParameters><EPHEMERIS_TYPE>0</EPHEMERIS_TYPE><CLASSIFICATION_TYPE>U</CLASSIFICATION_TYPE><NORAD_CAT_ID>63731</NORAD_CAT_ID><ELEMENT_SET_NO>999</ELEMENT_SET_NO><REV_AT_EPOCH>4080</REV_AT_EPOCH><BSTAR>.12996792E-2</BSTAR><MEAN_MOTION_DOT>.10292E-3</MEAN_MOTION_DOT><MEAN_MOTION_DDOT>0</MEAN_MOTION_DDOT></tleParameters></data></segment></body></omm>

</ndm>
