KUIPER-00008            
1 63724U 25088A   26022.18045941  .00011190  00000+0  93012-3 0  9998
2 63724  51.8913 298.9806 0007435 306.1335  53.8947 14.99125432 41082
KUIPER-00009            
1 63725U 25088B   26022.05250058  .00010240  00000+0  13692-2 0  9992
2 63725  51.9035 312.8611 0009760 308.4510  51.5575 14.79939411 40878
KUIPER-00010            
1 63726U 25088C   26022.24697432  .00008946  00000+0  12018-2 0  9996
2 63726  51.9021 288.4567 0000356  97.9990 262.1013 14.79899034 40857
KUIPER-00011            
1 63727U 25088D   26022.07008516 -.00003798  00000+0 -46802-3 0  9998
2 63727  51.9011 296.8094 0010832 329.6670  30.3665 14.79983305 40858
KUIPER-00012            
1 63728U 25088E   26021.92409586  .00008661  00000+0  12525-2 0  9990
2 63728  51.9018 281.7471 0008112 337.4504  22.6099 14.76776124 41008
KUIPER-00013            
1 63729U 25088F   26022.18604997  .00008732  00000+0  11688-2 0  9991
2 63729  51.9020 313.7290 0004067 236.6003 123.4570 14.80079412 40684
KUIPER-00014            
1 63730U 25088G   26022.18356627  .00005501  00000+0  74719-3 0  9993
2 63730  51.9022 314.7015 0004684 323.1995  36.8645 14.80095755 40487
KUIPER-00015            
1 63731U 25088H   26022.23166831  .00010292  00000+0  12997-2 0  9998
2 63731  51.9008 324.8520 0009041 282.5106  77.4846 14.82345447 40807
